{
    "listings": [
        {
            "city": "Abbeville",
            "library": "Abbeville Memorial Library",
            "zip": "36310"
        },
        {
            "city": "Adamsville",
            "library": "Adamsville Public Library",
            "zip": "35005"
        },
        {
            "city": "Akron",
            "library": "Akron Public Library",
            "zip": "35441"
        },
        {
            "city": "Alabaster",
            "library": "Alabaster - Albert L. Scott Library",
            "zip": "35007"
        },
        {
            "city": "Albertville",
            "library": "Albertville Public Library",
            "zip": "35950"
        },
        {
            "city": "Albertville",
            "library": "Marshall County Cooperative Library",
            "zip": "35950"
        },
        {
            "city": "Alexander City",
            "library": "Alexander City - Adelia Mcconnell Russell Library",
            "zip": "35010"
        },
        {
            "city": "Alexander City",
            "library": "Mamies Place Childrens Library",
            "zip": "35010"
        },
        {
            "city": "Aliceville",
            "library": "Aliceville Public Library",
            "zip": "35442"
        },
        {
            "city": "Andalusia",
            "library": "Andalusia Public Library",
            "zip": "36420"
        },
        {
            "city": "Anniston",
            "library": "Public Library Of Anniston-Calhoun County",
            "zip": "36201"
        },
        {
            "city": "Anniston",
            "library": "Public Library Of Anniston-Calhoun County - Carver",
            "zip": "36201"
        },
        {
            "city": "Arab",
            "library": "Arab Public Library",
            "zip": "35016"
        },
        {
            "city": "Ariton",
            "library": "Ariton - Dot Laney Memorial Library",
            "zip": "36311"
        },
        {
            "city": "Arley",
            "library": "Arley Public Library",
            "zip": "35541"
        },
        {
            "city": "Ashford",
            "library": "Houston-Love Memorial Library - Ashford",
            "zip": "36312"
        },
        {
            "city": "Ashland",
            "library": "Ashland City Public Library",
            "zip": "36251"
        },
        {
            "city": "Ashville",
            "library": "Ashville Public Library",
            "zip": "35953"
        },
        {
            "city": "Ashville",
            "library": "St. Clair County Library",
            "zip": "35953"
        },
        {
            "city": "Athens",
            "library": "Athens-Limestone Public Library",
            "zip": "35611"
        },
        {
            "city": "Atmore",
            "library": "Atmore Public",
            "zip": "36502"
        },
        {
            "city": "Atmore",
            "library": "Escambia County Cooperative Library System",
            "zip": "36502"
        },
        {
            "city": "Attalla",
            "library": "Etowah County Public Library",
            "zip": "35954"
        },
        {
            "city": "Auburn",
            "library": "Auburn Public Library",
            "zip": "36830"
        },
        {
            "city": "Autaugaville",
            "library": "Autauga Prattville Public Library - Autaugaville",
            "zip": "36003"
        },
        {
            "city": "Bay Minette",
            "library": "Bay Minette Public Library",
            "zip": "36507"
        },
        {
            "city": "Bessemer",
            "library": "Bessemer Public Library",
            "zip": "35020"
        },
        {
            "city": "Billingsley",
            "library": "Autauga Prattville Public Library - Billingsley",
            "zip": "36006"
        },
        {
            "city": "Birmingham",
            "library": "Birmingham Public Library",
            "zip": "35203"
        },
        {
            "city": "Birmingham",
            "library": "Birmingham Public Library - Avondale Regional Library",
            "zip": "35222"
        },
        {
            "city": "Birmingham",
            "library": "Birmingham Public Library - East Ensley",
            "zip": "35218"
        },
        {
            "city": "Birmingham",
            "library": "Birmingham Public Library - East Lake",
            "zip": "35206"
        },
        {
            "city": "Birmingham",
            "library": "Birmingham Public Library - Eastwood",
            "zip": "35210"
        },
        {
            "city": "Birmingham",
            "library": "Birmingham Public Library - Ensley",
            "zip": "35218"
        },
        {
            "city": "Birmingham",
            "library": "Birmingham Public Library - Five Points West",
            "zip": "35208"
        },
        {
            "city": "Birmingham",
            "library": "Birmingham Public Library - Inglenook",
            "zip": "35217"
        },
        {
            "city": "Birmingham",
            "library": "Birmingham Public Library - North Avondale",
            "zip": "35222"
        },
        {
            "city": "Birmingham",
            "library": "Birmingham Public Library - North Birmingham",
            "zip": "35207"
        },
        {
            "city": "Birmingham",
            "library": "Birmingham Public Library - Powderly",
            "zip": "35221"
        },
        {
            "city": "Birmingham",
            "library": "Birmingham Public Library - Pratt City",
            "zip": "35214"
        },
        {
            "city": "Birmingham",
            "library": "Birmingham Public Library - Slossfield",
            "zip": "35234"
        },
        {
            "city": "Birmingham",
            "library": "Birmingham Public Library - Smithfield",
            "zip": "35204"
        },
        {
            "city": "Birmingham",
            "library": "Birmingham Public Library - Southside",
            "zip": "35205"
        },
        {
            "city": "Birmingham",
            "library": "Birmingham Public Library - Springville Road",
            "zip": "35235"
        },
        {
            "city": "Birmingham",
            "library": "Birmingham Public Library - Titusville",
            "zip": "35211"
        },
        {
            "city": "Birmingham",
            "library": "Birmingham Public Library - West End",
            "zip": "35211"
        },
        {
            "city": "Birmingham",
            "library": "Birmingham Public Library - Woodlawn",
            "zip": "35212"
        },
        {
            "city": "Birmingham",
            "library": "Birmingham Public Library - Wylam",
            "zip": "35224"
        },
        {
            "city": "Birmingham",
            "library": "North Shelby Library",
            "zip": "35242"
        },
        {
            "city": "Blountsville",
            "library": "Blountsville Public Library",
            "zip": "35031"
        },
        {
            "city": "Boaz",
            "library": "Boaz Public Library",
            "zip": "35957"
        },
        {
            "city": "Brantley",
            "library": "Brantley Public Library",
            "zip": "36009"
        },
        {
            "city": "Brewton",
            "library": "Brewton Public Library",
            "zip": "36426"
        },
        {
            "city": "Bridgeport",
            "library": "Bridgeport - Lena Cagle Public Library",
            "zip": "35740"
        },
        {
            "city": "Brundidge",
            "library": "Brundidge - Tupper Lightfoot Memorial Library",
            "zip": "36010"
        },
        {
            "city": "Butler",
            "library": "Choctaw County Public Library",
            "zip": "36904"
        },
        {
            "city": "Butler",
            "library": "Choctaw County Public Library - Gilbertown",
            "zip": "36908"
        },
        {
            "city": "Butler",
            "library": "Choctaw County Public Library - Silas",
            "zip": "36919"
        },
        {
            "city": "Calera",
            "library": "Calera Public Library",
            "zip": "35040"
        },
        {
            "city": "Camden",
            "library": "Wilcox County Library",
            "zip": "36726"
        },
        {
            "city": "Carbon Hill",
            "library": "Carbon Hill City Library",
            "zip": "35549"
        },
        {
            "city": "Carrollton",
            "library": "Carrollton Public Library",
            "zip": "35447"
        },
        {
            "city": "Carrollton",
            "library": "Pickens County Cooperative Library",
            "zip": "35447"
        },
        {
            "city": "Centre",
            "library": "Cherokee County Public Library",
            "zip": "35960"
        },
        {
            "city": "Centreville",
            "library": "Brent-Centreville Public Library",
            "zip": "35042"
        },
        {
            "city": "Chatom",
            "library": "Washington County Public Library",
            "zip": "36518"
        },
        {
            "city": "Chelsea",
            "library": "Chelsea Public Library",
            "zip": "35043"
        },
        {
            "city": "Cherokee",
            "library": "Cherokee Public Library",
            "zip": "35616"
        },
        {
            "city": "Chickasaw",
            "library": "Chickasaw - Ina Pullen Smallwood Memorial Library",
            "zip": "36611"
        },
        {
            "city": "Childersburg",
            "library": "Childersburg - Earle A. Rainwater Memorial Library",
            "zip": "35044"
        },
        {
            "city": "Citronelle",
            "library": "Citronelle Memorial Library",
            "zip": "36522"
        },
        {
            "city": "Clanton",
            "library": "Clanton Public Library",
            "zip": "35045"
        },
        {
            "city": "Clayton",
            "library": "Clayton Town And County Public Library",
            "zip": "36016"
        },
        {
            "city": "Clio",
            "library": "Elton B. Stephens Library",
            "zip": "36017"
        },
        {
            "city": "Collinsville",
            "library": "Collinsville Public Library",
            "zip": "35961"
        },
        {
            "city": "Columbia",
            "library": "Houston-Love Memorial Library - Columbia",
            "zip": "36319"
        },
        {
            "city": "Columbiana",
            "library": "Columbiana Public Library",
            "zip": "35051"
        },
        {
            "city": "Columbiana",
            "library": "Harrison Regional Library System",
            "zip": "35051"
        },
        {
            "city": "Cordova",
            "library": "Cordova Public Library",
            "zip": "35550"
        },
        {
            "city": "Courtland",
            "library": "Courtland Public Library",
            "zip": "35618"
        },
        {
            "city": "Crane Hill",
            "library": "Crane Hill Community Library",
            "zip": "35053"
        },
        {
            "city": "Crossville",
            "library": "Crossville Public Library",
            "zip": "35962"
        },
        {
            "city": "Cullman",
            "library": "Cullman County Public Library System",
            "zip": "35055"
        },
        {
            "city": "Cullman",
            "library": "Fairview Public Library",
            "zip": "35058"
        },
        {
            "city": "Dadeville",
            "library": "Dadeville Public Library",
            "zip": "36853"
        },
        {
            "city": "Dadeville",
            "library": "Horseshoe Bend Regional Library",
            "zip": "36853"
        },
        {
            "city": "Daleville",
            "library": "Daleville Public Library",
            "zip": "36322"
        },
        {
            "city": "Daphne",
            "library": "Daphne Public Library",
            "zip": "36526"
        },
        {
            "city": "Decatur",
            "library": "Decatur Public Library",
            "zip": "35601"
        },
        {
            "city": "Decatur",
            "library": "Wheeler Basin Regional Library",
            "zip": "35601"
        },
        {
            "city": "Demopolis",
            "library": "Demopolis Public Library",
            "zip": "36732"
        },
        {
            "city": "Dora",
            "library": "Dora Public Library",
            "zip": "35062"
        },
        {
            "city": "Dothan",
            "library": "Houston-Love Memorial Library - Dothan",
            "zip": "36303"
        },
        {
            "city": "Double Springs",
            "library": "Double Springs Public Library",
            "zip": "35553"
        },
        {
            "city": "Dutton",
            "library": "Dutton Public Library",
            "zip": "35744"
        },
        {
            "city": "Eight Mile",
            "library": "Mitchell Branch Library",
            "zip": "36613"
        },
        {
            "city": "Elba",
            "library": "Elba Public Library",
            "zip": "36323"
        },
        {
            "city": "Enterprise",
            "library": "Enterprise Public Library",
            "zip": "36330"
        },
        {
            "city": "Eufaula",
            "library": "Eufaula Carnegie Library",
            "zip": "36027"
        },
        {
            "city": "Eufaula",
            "library": "Mccoo Memorial Childrens Library",
            "zip": "36027"
        },
        {
            "city": "Eutaw",
            "library": "James C. Poole Jr. Memorial Library",
            "zip": "35462"
        },
        {
            "city": "Eva",
            "library": "Eva Public Library",
            "zip": "35621"
        },
        {
            "city": "Evergreen",
            "library": "Evergreen Public Library",
            "zip": "36401"
        },
        {
            "city": "Fairfield",
            "library": "Walter J. Hanna Memorial Library",
            "zip": "35064"
        },
        {
            "city": "Fairfield",
            "library": "Western Hills Mall Branch",
            "zip": "35064"
        },
        {
            "city": "Fairhope",
            "library": "Fairhope Public Library",
            "zip": "36532"
        },
        {
            "city": "Falkville",
            "library": "Falkville Public Library",
            "zip": "35622"
        },
        {
            "city": "Fayette",
            "library": "Fayette County Memorial Library",
            "zip": "35555"
        },
        {
            "city": "Flomaton",
            "library": "Flomaton Public Library",
            "zip": "36441"
        },
        {
            "city": "Florala",
            "library": "Florala Public Library",
            "zip": "36442"
        },
        {
            "city": "Florence",
            "library": "Florence-Lauderdale Public Library",
            "zip": "35630"
        },
        {
            "city": "Foley",
            "library": "Foley Public Library",
            "zip": "36535"
        },
        {
            "city": "Fort Deposit",
            "library": "Fort Deposit Public Library",
            "zip": "36032"
        },
        {
            "city": "Fort Payne",
            "library": "Dekalb County Public Library",
            "zip": "35967"
        },
        {
            "city": "Fultondale",
            "library": "Fultondale Public Library",
            "zip": "35068"
        },
        {
            "city": "Gadsden",
            "library": "Carver Memorial Library",
            "zip": "35901"
        },
        {
            "city": "Gadsden",
            "library": "East Gadsden Branch Library",
            "zip": "35903"
        },
        {
            "city": "Gadsden",
            "library": "Gadsden Public Library",
            "zip": "35901"
        },
        {
            "city": "Gadsden",
            "library": "Hoyt Warsham Alabama City Branch Library",
            "zip": "35904"
        },
        {
            "city": "Garden City",
            "library": "Garden City Public Library",
            "zip": "35070"
        },
        {
            "city": "Gardendale",
            "library": "Gardendale Martha Moore Public Library",
            "zip": "35071"
        },
        {
            "city": "Geneva",
            "library": "Emma Knox Kenan Public Library",
            "zip": "36340"
        },
        {
            "city": "Geraldine",
            "library": "Geraldine Public Library",
            "zip": "35974"
        },
        {
            "city": "Goodwater",
            "library": "Goodwater Public Library",
            "zip": "35072"
        },
        {
            "city": "Gordo",
            "library": "Ruth Holliman Memorial Public Library",
            "zip": "35466"
        },
        {
            "city": "Grant",
            "library": "Grant Public Library",
            "zip": "35747"
        },
        {
            "city": "Graysville",
            "library": "Graysville Public Library",
            "zip": "35073"
        },
        {
            "city": "Green Pond",
            "library": "Woodstock Library",
            "zip": "35074"
        },
        {
            "city": "Greensboro",
            "library": "Hale County Library",
            "zip": "36744"
        },
        {
            "city": "Greenville",
            "library": "Butler County Public Library",
            "zip": "36037"
        },
        {
            "city": "Grove Hill",
            "library": "Grove Hill Public Library",
            "zip": "36451"
        },
        {
            "city": "Guin",
            "library": "Mchs Community Library",
            "zip": "35563"
        },
        {
            "city": "Gulf Shores",
            "library": "Thomas B. Norton Public Library",
            "zip": "36542"
        },
        {
            "city": "Guntersville",
            "library": "Guntersville Public Library",
            "zip": "35976"
        },
        {
            "city": "Gurley",
            "library": "Gurley Public Library",
            "zip": "35748"
        },
        {
            "city": "Haleyville",
            "library": "Haleyville Public Library",
            "zip": "35565"
        },
        {
            "city": "Hamilton",
            "library": "Clyde Nix Public Library",
            "zip": "35570"
        },
        {
            "city": "Hanceville",
            "library": "Hanceville Public Library",
            "zip": "35077"
        },
        {
            "city": "Hanceville",
            "library": "Tom Bevel Branch",
            "zip": "35077"
        },
        {
            "city": "Harpersville",
            "library": "Harpersville Public Library",
            "zip": "35078"
        },
        {
            "city": "Hartford",
            "library": "Hartford - Mcgregor-Mckinney Public Library",
            "zip": "36344"
        },
        {
            "city": "Hartselle",
            "library": "Hartselle - William Bradford Huie Public Library",
            "zip": "35640"
        },
        {
            "city": "Hayneville",
            "library": "Hayneville-Lowndes County Public Library",
            "zip": "36040"
        },
        {
            "city": "Hazel Green",
            "library": "Tillman Hill Branch Library",
            "zip": "35750"
        },
        {
            "city": "Headland",
            "library": "Blanche R. Solomon Memorial Library",
            "zip": "36345"
        },
        {
            "city": "Heflin",
            "library": "Cheaha Regional Library",
            "zip": "36264"
        },
        {
            "city": "Heflin",
            "library": "Lucile L. Morgan Public Library",
            "zip": "36264"
        },
        {
            "city": "Helena",
            "library": "Jane B. Holmes Public Library",
            "zip": "35080"
        },
        {
            "city": "Henagar",
            "library": "Henagar Public Library",
            "zip": "35978"
        },
        {
            "city": "Hokes Bluff",
            "library": "Hokes Bluff - Rufus Floyd Public Library",
            "zip": "35903"
        },
        {
            "city": "Homewood",
            "library": "Homewood Public Library",
            "zip": "35209"
        },
        {
            "city": "Hoover",
            "library": "Hoover Public Library",
            "zip": "35216"
        },
        {
            "city": "Hueytown",
            "library": "Hueytown Public Library",
            "zip": "35023"
        },
        {
            "city": "Huntsville",
            "library": "Bailey Cove Branch Library",
            "zip": "35803"
        },
        {
            "city": "Huntsville",
            "library": "Bessie K. Russell Branch Library",
            "zip": "35810"
        },
        {
            "city": "Huntsville",
            "library": "Blue Spring Branch",
            "zip": "35810"
        },
        {
            "city": "Huntsville",
            "library": "Eleanor E. Murphy Branch Library",
            "zip": "35802"
        },
        {
            "city": "Huntsville",
            "library": "Huntsville-Madison County Public Library",
            "zip": "35801"
        },
        {
            "city": "Huntsville",
            "library": "Oscar Mason Branch",
            "zip": "35805"
        },
        {
            "city": "Ider",
            "library": "Ider Public Library",
            "zip": "35981"
        },
        {
            "city": "Irondale",
            "library": "Irondale Public Library",
            "zip": "35210"
        },
        {
            "city": "Irvington",
            "library": "City Of Bayou La Batre Public Library",
            "zip": "36509"
        },
        {
            "city": "Jackson",
            "library": "White Smith Memorial Library",
            "zip": "36545"
        },
        {
            "city": "Jacksonville",
            "library": "Jacksonville Public Library",
            "zip": "36265"
        },
        {
            "city": "Jasper",
            "library": "Carl Elliott Regional Library System",
            "zip": "35501"
        },
        {
            "city": "Jasper",
            "library": "Jasper Public Library",
            "zip": "35501"
        },
        {
            "city": "Jemison",
            "library": "Jemison Public Library"
        },
        {
            "city": "Kennedy",
            "library": "Kennedy Public Library",
            "zip": "35574"
        },
        {
            "city": "Killen",
            "library": "Killen Public Library",
            "zip": "35645"
        },
        {
            "city": "Lafayette",
            "library": "Lafayette Pilot Public Library",
            "zip": "36862"
        },
        {
            "city": "Leeds",
            "library": "Jane Culbreth Library",
            "zip": "35094"
        },
        {
            "city": "Leighton",
            "library": "Leighton Public Library",
            "zip": "35646"
        },
        {
            "city": "Lexington",
            "library": "Burchell Campbell Memorial Library",
            "zip": "35648"
        },
        {
            "city": "Lincoln",
            "library": "Lincoln Public Library",
            "zip": "35096"
        },
        {
            "city": "Linden",
            "library": "Marengo County Public Library",
            "zip": "36748"
        },
        {
            "city": "Lineville",
            "library": "Lineville Public Library",
            "zip": "36266"
        },
        {
            "city": "Livingston",
            "library": "Ruby Pickens Tartt Public Library",
            "zip": "35470"
        },
        {
            "city": "Louisville",
            "library": "Louisville Public Library",
            "zip": "36048"
        },
        {
            "city": "Loxleyabama",
            "library": "Loxley Public Library",
            "zip": "36551"
        },
        {
            "city": "Luverne",
            "library": "Luverne Public Library",
            "zip": "36049"
        },
        {
            "city": "Madison",
            "library": "Madison Public Library",
            "zip": "35758"
        },
        {
            "city": "Madison",
            "library": "Monrovia Branch",
            "zip": "35757"
        },
        {
            "city": "Madison",
            "library": "Triana Branch Library",
            "zip": "35756"
        },
        {
            "city": "Maplesville",
            "library": "Maplesville Public Library",
            "zip": "36750"
        },
        {
            "city": "Marbury",
            "library": "Autauga Prattville Public Library - Marbury",
            "zip": "36051"
        },
        {
            "city": "Marion",
            "library": "Marion-Perry County Library",
            "zip": "36756"
        },
        {
            "city": "Mcintosh",
            "library": "Mcintosh Public Library",
            "zip": "36553"
        },
        {
            "city": "Midfield",
            "library": "Midfield Public Library",
            "zip": "35228"
        },
        {
            "city": "Midland City",
            "library": "Mary Berry Brown Memorial Library",
            "zip": "36350"
        },
        {
            "city": "Millbrook",
            "library": "Millbrook Public Library",
            "zip": "36054"
        },
        {
            "city": "Millport",
            "library": "Millport Public Library",
            "zip": "35576"
        },
        {
            "city": "Mobile",
            "library": "Dauphin Island Parkway Branch",
            "zip": "36605"
        },
        {
            "city": "Mobile",
            "library": "Mobile Public Library",
            "zip": "36602"
        },
        {
            "city": "Mobile",
            "library": "Monte L. Moorer-Springhill Branch",
            "zip": "36608"
        },
        {
            "city": "Mobile",
            "library": "Tillmans Corner Branch",
            "zip": "36619"
        },
        {
            "city": "Mobile",
            "library": "Toulminville Branch",
            "zip": "36617"
        },
        {
            "city": "Mobile",
            "library": "West Regional Library",
            "zip": "36609"
        },
        {
            "city": "Monroeville",
            "library": "Monroe County Public Library",
            "zip": "36460"
        },
        {
            "city": "Montevallo",
            "library": "Montevallo - Parnell Memorial Library",
            "zip": "35115"
        },
        {
            "city": "Montevallo",
            "library": "Parnell Memorial Library",
            "zip": "35115"
        },
        {
            "city": "Montgomery",
            "library": "Coliseum Boulevard Branch Library",
            "zip": "36109"
        },
        {
            "city": "Montgomery",
            "library": "El Lowder Regional Library",
            "zip": "36116"
        },
        {
            "city": "Montgomery",
            "library": "Governors Square Branch Library",
            "zip": "36116"
        },
        {
            "city": "Montgomery",
            "library": "Hampstead Branch Library",
            "zip": "36116"
        },
        {
            "city": "Montgomery",
            "library": "Juliette Hampton Morgan Memorial Library",
            "zip": "36104"
        },
        {
            "city": "Montgomery",
            "library": "Pintlala Branch Library",
            "zip": "36043"
        },
        {
            "city": "Montgomery",
            "library": "Rosa L. Parks Avenue Branch Library",
            "zip": "36108"
        },
        {
            "city": "Montgomery",
            "library": "Rufus A. Lewis Regional Library",
            "zip": "36108"
        },
        {
            "city": "Moody",
            "library": "Doris Stanley Memorial Library",
            "zip": "35004"
        },
        {
            "city": "Moody",
            "library": "Moody - Doris Stanley Memorial Library",
            "zip": "35004"
        },
        {
            "city": "Moulton",
            "library": "Lawrence County Public Library",
            "zip": "35650"
        },
        {
            "city": "Moundville",
            "library": "Moundville Public Library",
            "zip": "35474"
        },
        {
            "city": "Mountain Brook",
            "library": "Emmet Oneal Library",
            "zip": "35213"
        },
        {
            "city": "Mt. Vernon",
            "library": "Mt. Vernon Public Library",
            "zip": "36560"
        },
        {
            "city": "Muscle Shoals",
            "library": "Muscle Shoals Public Library",
            "zip": "35661"
        },
        {
            "city": "New Hope",
            "library": "Elizabeth Carpenter Public Library"
        },
        {
            "city": "Newton",
            "library": "Newton Public Library",
            "zip": "36352"
        },
        {
            "city": "Odenville",
            "library": "Odenville Public Library",
            "zip": "35120"
        },
        {
            "city": "Ohatchee",
            "library": "Ohatchee Public Library",
            "zip": "36271"
        },
        {
            "city": "Oneonta",
            "library": "Oneonta Public Library",
            "zip": "35121"
        },
        {
            "city": "Opelika",
            "library": "Lewis Cooper Jr. Memorial Library"
        },
        {
            "city": "Opelika",
            "library": "Opelika - Lewis Cooper Jr. Memorial Library",
            "zip": "36801"
        },
        {
            "city": "Opp",
            "library": "Opp Public Library",
            "zip": "36467"
        },
        {
            "city": "Orange Beach",
            "library": "Orange Beach Public Library",
            "zip": "36561"
        },
        {
            "city": "Oxford",
            "library": "Oxford Public Library",
            "zip": "36203"
        },
        {
            "city": "Ozark",
            "library": "Ozark - Dale County Public Library",
            "zip": "36360"
        },
        {
            "city": "Pelham",
            "library": "Pelham Public Library",
            "zip": "35124"
        },
        {
            "city": "Pell City",
            "library": "Pell City Public Library",
            "zip": "35125"
        },
        {
            "city": "Phenix City",
            "library": "Phenix City-Russell County Library",
            "zip": "36867"
        },
        {
            "city": "Piedmont",
            "library": "Piedmont Public Library",
            "zip": "36272"
        },
        {
            "city": "Pike Road",
            "library": "Pike Road Branch Library",
            "zip": "36064"
        },
        {
            "city": "Pine Hill",
            "library": "Pine Hill Branch Public Library",
            "zip": "36769"
        },
        {
            "city": "Pine Level",
            "library": "Pine Level Branch Library",
            "zip": "36065"
        },
        {
            "city": "Pinson",
            "library": "Clay Public Library",
            "zip": "35126"
        },
        {
            "city": "Pinson",
            "library": "Pinson Public Library",
            "zip": "35126"
        },
        {
            "city": "Pleasant Grove",
            "library": "Pleasant Grove Public Library",
            "zip": "35127"
        },
        {
            "city": "Prattville",
            "library": "Autauga - Prattville Public Library",
            "zip": "36067"
        },
        {
            "city": "Priceville",
            "library": "Priceville Public Library",
            "zip": "35603"
        },
        {
            "city": "Prichard",
            "library": "Prichard Public Library",
            "zip": "36610"
        },
        {
            "city": "Ragland",
            "library": "Ragland Public Library",
            "zip": "35131"
        },
        {
            "city": "Rainbow City",
            "library": "Rainbow City Public Library",
            "zip": "35906"
        },
        {
            "city": "Rainsville",
            "library": "Rainsville Public Library",
            "zip": "35986"
        },
        {
            "city": "Ramer",
            "library": "Ramer Branch Library",
            "zip": "36069"
        },
        {
            "city": "Red Bay",
            "library": "Red Bay - Weatherford Public Library",
            "zip": "35582"
        },
        {
            "city": "Reform",
            "library": "Reform Public Library",
            "zip": "35481"
        },
        {
            "city": "Roanoke",
            "library": "Roanoke - Annie L. Awbrey Public Library",
            "zip": "36274"
        },
        {
            "city": "Robertsdale",
            "library": "Baldwin County Library Cooperative",
            "zip": "36567"
        },
        {
            "city": "Robertsdale",
            "library": "Robertsdale Public Library",
            "zip": "36567"
        },
        {
            "city": "Rockford",
            "library": "Rockford Public Library",
            "zip": "35136"
        },
        {
            "city": "Rogersville",
            "library": "Rogersville Public Library",
            "zip": "35652"
        },
        {
            "city": "Russellville",
            "library": "Russellville Public Library",
            "zip": "35653"
        },
        {
            "city": "Samson",
            "library": "Samson Public Library",
            "zip": "36477"
        },
        {
            "city": "Saraland",
            "library": "Saraland Public Library",
            "zip": "36571"
        },
        {
            "city": "Sardis City",
            "library": "Sardis City Public Library",
            "zip": "35956"
        },
        {
            "city": "Satsuma",
            "library": "Satsuma Public Library",
            "zip": "36572"
        },
        {
            "city": "Scottsboro",
            "library": "Scottsboro Public Library",
            "zip": "35768"
        },
        {
            "city": "Selma",
            "library": "Selma-Dallas County Public Library",
            "zip": "36703"
        },
        {
            "city": "Sheffield",
            "library": "Sheffield Public Library",
            "zip": "35660"
        },
        {
            "city": "Silverhill",
            "library": "Oscar Johnson Memorial Library",
            "zip": "36576"
        },
        {
            "city": "Slocomb",
            "library": "Slocomb Public Library",
            "zip": "36375"
        },
        {
            "city": "Somerville",
            "library": "Somerville Public Library",
            "zip": "35670"
        },
        {
            "city": "Springville",
            "library": "Springville Public Library",
            "zip": "35146"
        },
        {
            "city": "Steele",
            "library": "Steele Public Library",
            "zip": "35987"
        },
        {
            "city": "Stevenson",
            "library": "Stevenson Public Library",
            "zip": "35772"
        },
        {
            "city": "Sulligent",
            "library": "Sulligent Public Library",
            "zip": "35586"
        },
        {
            "city": "Sumiton",
            "library": "Sumiton Public Library",
            "zip": "35148"
        },
        {
            "city": "Summerdale",
            "library": "Summerdale - Marjorie Younce Snook Public Library",
            "zip": "36580"
        },
        {
            "city": "Sylacauga",
            "library": "B .B. Comer Memorial Library",
            "zip": "35150"
        },
        {
            "city": "Talladega",
            "library": "Talladega Public Library",
            "zip": "35160"
        },
        {
            "city": "Tallassee",
            "library": "Tallassee Community Library",
            "zip": "36078"
        },
        {
            "city": "Tarrant",
            "library": "Tarrant Public Library",
            "zip": "35217"
        },
        {
            "city": "Thomasville",
            "library": "Thomasville Public Library",
            "zip": "36784"
        },
        {
            "city": "Thorsby",
            "library": "Thorsby Public Library"
        },
        {
            "city": "Troy",
            "library": "Troy Public Library",
            "zip": "36081"
        },
        {
            "city": "Trussville",
            "library": "Trussville Public Library",
            "zip": "35173"
        },
        {
            "city": "Tuscaloosa",
            "library": "Tuscaloosa Public Library",
            "zip": "35401"
        },
        {
            "city": "Tuscaloosa",
            "library": "Weaver-Bolden Branch Library",
            "zip": "35401"
        },
        {
            "city": "Tuscumbia",
            "library": "Tuscumbia - Helen Keller Public Library",
            "zip": "35674"
        },
        {
            "city": "Tuskegee",
            "library": "Macon County - Tuskegee Public Library",
            "zip": "36083"
        },
        {
            "city": "Union Springs",
            "library": "Union Springs Public Library",
            "zip": "36089"
        },
        {
            "city": "Uniontown",
            "library": "Uniontown Public Library",
            "zip": "36786"
        },
        {
            "city": "Valley",
            "library": "H. Grady Bradshaw - Chambers County Library",
            "zip": "36854"
        },
        {
            "city": "Vernon",
            "library": "Vernon - Mary Wallace Cobb Memorial Library",
            "zip": "35592"
        },
        {
            "city": "Vestavia Hills",
            "library": "Vestavia Hills Public Library",
            "zip": "35216"
        },
        {
            "city": "Vincent",
            "library": "Vincent - Lallouise F. Mcgraw Library",
            "zip": "35178"
        },
        {
            "city": "Walnut Grove",
            "library": "Westside Public Library",
            "zip": "35990"
        },
        {
            "city": "Warrior",
            "library": "Warrior Public Library",
            "zip": "35180"
        },
        {
            "city": "West Blocton",
            "library": "West Blocton Public Library",
            "zip": "35184"
        },
        {
            "city": "Westover",
            "library": "Westover Public Library"
        },
        {
            "city": "Wetumpka",
            "library": "Wetumpka Public Library",
            "zip": "36092"
        },
        {
            "city": "White Hall",
            "library": "White Hall Public Library",
            "zip": "36040"
        },
        {
            "city": "Wilsonville",
            "library": "Wilsonville - Vernice Stoudenmire Library",
            "zip": "35186"
        },
        {
            "city": "Winfield",
            "library": "Northwest Regional Library",
            "zip": "35594"
        },
        {
            "city": "Winfield",
            "library": "Winfield Public Library",
            "zip": "35594"
        },
        {
            "city": "Woodville",
            "library": "Woodville Public Library",
            "zip": "35776"
        },
        {
            "city": "York",
            "library": "Hightower Memorial Library",
            "zip": "36925"
        }
    ]
}